{
  "norad_id": 60240,
  "name": "OOV-CUBE (TUBSAT-30)",
  "history": [
    {
      "epoch": "2026-03-28T12:46:37.130880Z",
      "apogee_km": 596.3109082957026,
      "perigee_km": 522.8662030004552,
      "latitude_deg": 5.528068054442971e-05,
      "longitude_deg": 129.12284950055636,
      "height_km": 577.3726968297859,
      "semi_major_axis_km": 6937.725555648079,
      "eccentricity": 0.00529314,
      "inclination_deg": 61.9947,
      "raan_deg": 146.729,
      "arg_perigee_deg": 116.2323,
      "mean_anomaly_deg": 244.4223,
      "mean_motion_rev_day": 15.02370641
    }
  ]
}